[{"OBJECT_NAME":"STARLINK-6097","OBJECT_ID":"2023-090E","EPOCH":"2026-03-09T20:20:02.619456","MEAN_MOTION":15.02533387,"ECCENTRICITY":0.00012412,"INCLINATION":43.0042,"RA_OF_ASC_NODE":274.0947,"ARG_OF_PERICENTER":270.2312,"MEAN_ANOMALY":89.8388,"EPHEMERIS_TYPE":0,"CLASSIFICATION_TYPE":"U","NORAD_CAT_ID":57105,"ELEMENT_SET_NO":999,"REV_AT_EPOCH":15043,"BSTAR":-1.2087274e-5,"MEAN_MOTION_DOT":-3.67e-6,"MEAN_MOTION_DDOT":0},{"OBJECT_NAME":"PEGASUS R\/B","OBJECT_ID":"1998-071B","EPOCH":"2026-03-09T18:27:50.570784","MEAN_MOTION":15.03047703,"ECCENTRICITY":0.0004531,"INCLINATION":69.9123,"RA_OF_ASC_NODE":198.9358,"ARG_OF_PERICENTER":7.5622,"MEAN_ANOMALY":352.5606,"EPHEMERIS_TYPE":0,"CLASSIFICATION_TYPE":"U","NORAD_CAT_ID":25561,"ELEMENT_SET_NO":999,"REV_AT_EPOCH":48091,"BSTAR":0.00030278547,"MEAN_MOTION_DOT":3.992e-5,"MEAN_MOTION_DDOT":0}]
